*******************************************************************************
Ephemeris / WWW_USER Mon Mar 24 08:05:53 2025 Pasadena, USA      / Horizons    
*******************************************************************************
Target body name: (2018 US2)                      {source: JPL#14}
Center body name: Earth (399)                     {source: DE441}
Center-site name: Mauna Kea
*******************************************************************************
Start time      : A.D. 2018-Sep-13 04:36:00.0000 UT      
Stop  time      : A.D. 2018-Sep-13 15:59:00.0000 UT      
Step-size       : 1 minutes
*******************************************************************************
Target pole/equ : undefined
Target radii    : undefined                                                    
Center geodetic : 204.5278, 19.8260847, 4.21024   {E-lon(deg),Lat(deg),Alt(km)}
Center cylindric: 204.5278, 6006.35451, 2151.0229 {E-lon(deg),Dxy(km),Dz(km)}
Center pole/equ : ITRF93                          {East-longitude positive}
Center radii    : 6378.137, 6378.137, 6356.752 km {Equator_a, b, pole_c}       
Target primary  : Sun
Vis. interferer : MOON (R_eq= 1737.400) km        {source: DE441}
Rel. light bend : Sun                             {source: DE441}
Rel. lght bnd GM: 1.3271E+11 km^3/s^2                                          
Small-body perts: Yes                             {source: SB441-N16}
Atmos refraction: NO (AIRLESS)
RA format       : HMS
Time format     : CAL 
Calendar mode   : Mixed Julian/Gregorian
RTS-only print  : NO       
EOP file        : eop.250321.p250617                                           
EOP coverage    : DATA-BASED 1962-JAN-20 TO 2025-MAR-21. PREDICTS-> 2025-JUN-16
Units conversion: 1 au= 149597870.700 km, c= 299792.458 km/s, 1 day= 86400.0 s 
Table cut-offs 1: Elevation (-90.0deg=NO ),Airmass (>38.000=NO), Daylight (YES)
Table cut-offs 2: Solar elongation (  0.0,180.0=NO ),Local Hour Angle( 0.0=NO )
Table cut-offs 3: RA/DEC angular rate (     0.0=NO )                           
*******************************************************************************
Initial IAU76/J2000 heliocentric ecliptic osculating elements (au, days, deg.):
  EPOCH=  2458424.5 ! 2018-Nov-02.00 (TDB)         Residual RMS= .2503         
   EC= .6580934192644969   QR= 1.019516546973241   TP= 2458405.4003266119      
   OM= 225.9089147719754   W=  151.3321843630243   IN= 7.044798776353047       
  Equivalent ICRF heliocentric cartesian coordinates (au, au/d):
   X= 8.026033061055595E-01  Y= 6.200562709856074E-01  Z= 2.826199844552283E-01
  VX=-1.102263624249032E-02 VY= 1.780430100977025E-02 VZ= 4.937770740848229E-03
Asteroid physical parameters (km, seconds, rotational period in hours):        
   GM= n.a.                RAD= n.a.               ROTPER= n.a.                
   H= 24.88                G= .150                 B-V= n.a.                   
                           ALBEDO= n.a.            STYP= n.a.                  
*******************************************************************************
 Date__(UT)__HR:MN     R.A._________(ICRF)_________DEC
******************************************************
$$SOE
 2018-Sep-13 12:48     18 51 36.119013 +11 18 11.08701
 2018-Sep-13 12:49     18 51 36.124105 +11 18 11.64758
 2018-Sep-13 12:50     18 51 36.129248 +11 18 12.20820
 2018-Sep-13 12:51     18 51 36.134440 +11 18 12.76886
 2018-Sep-13 12:52     18 51 36.139682 +11 18 13.32958
 2018-Sep-13 12:53     18 51 36.144974 +11 18 13.89035
 2018-Sep-13 12:54     18 51 36.150315 +11 18 14.45116
 2018-Sep-13 12:55     18 51 36.155706 +11 18 15.01203
 2018-Sep-13 12:56     18 51 36.161147 +11 18 15.57296
 2018-Sep-13 12:57     18 51 36.166637 +11 18 16.13393
 2018-Sep-13 12:58     18 51 36.172177 +11 18 16.69496
 2018-Sep-13 12:59     18 51 36.177766 +11 18 17.25605
 2018-Sep-13 13:00     18 51 36.183404 +11 18 17.81719
 2018-Sep-13 13:01     18 51 36.189092 +11 18 18.37838
 2018-Sep-13 13:02     18 51 36.194829 +11 18 18.93963
 2018-Sep-13 13:03     18 51 36.200615 +11 18 19.50094
 2018-Sep-13 13:04     18 51 36.206449 +11 18 20.06230
 2018-Sep-13 13:05     18 51 36.212333 +11 18 20.62373
 2018-Sep-13 13:06     18 51 36.218266 +11 18 21.18521
 2018-Sep-13 13:07     18 51 36.224248 +11 18 21.74675
 2018-Sep-13 13:08     18 51 36.230278 +11 18 22.30835
 2018-Sep-13 13:09     18 51 36.236357 +11 18 22.87001
 2018-Sep-13 13:10     18 51 36.242485 +11 18 23.43173
 2018-Sep-13 13:11     18 51 36.248661 +11 18 23.99351
 2018-Sep-13 13:12     18 51 36.254886 +11 18 24.55535
 2018-Sep-13 13:13     18 51 36.261158 +11 18 25.11726
 2018-Sep-13 13:14     18 51 36.267480 +11 18 25.67923
 2018-Sep-13 13:15     18 51 36.273849 +11 18 26.24127
 2018-Sep-13 13:16     18 51 36.280267 +11 18 26.80337
 2018-Sep-13 13:17     18 51 36.286732 +11 18 27.36553
 2018-Sep-13 13:18     18 51 36.293246 +11 18 27.92776
 2018-Sep-13 13:19     18 51 36.299807 +11 18 28.49006
 2018-Sep-13 13:20     18 51 36.306416 +11 18 29.05242
 2018-Sep-13 13:21     18 51 36.313073 +11 18 29.61485
 2018-Sep-13 13:22     18 51 36.319778 +11 18 30.17735
 2018-Sep-13 13:23     18 51 36.326530 +11 18 30.73991
 2018-Sep-13 13:24     18 51 36.333329 +11 18 31.30255
 2018-Sep-13 13:25     18 51 36.340176 +11 18 31.86525
 2018-Sep-13 13:26     18 51 36.347070 +11 18 32.42803
 2018-Sep-13 13:27     18 51 36.354011 +11 18 32.99087
 2018-Sep-13 13:28     18 51 36.361000 +11 18 33.55379
 2018-Sep-13 13:29     18 51 36.368035 +11 18 34.11678
 2018-Sep-13 13:30     18 51 36.375117 +11 18 34.67984
 2018-Sep-13 13:31     18 51 36.382246 +11 18 35.24298
 2018-Sep-13 13:32     18 51 36.389422 +11 18 35.80619
 2018-Sep-13 13:33     18 51 36.396644 +11 18 36.36947
 2018-Sep-13 13:34     18 51 36.403913 +11 18 36.93283
 2018-Sep-13 13:35     18 51 36.411228 +11 18 37.49626
 2018-Sep-13 13:36     18 51 36.418590 +11 18 38.05977
 2018-Sep-13 13:37     18 51 36.425998 +11 18 38.62336
 2018-Sep-13 13:38     18 51 36.433451 +11 18 39.18702
 2018-Sep-13 13:39     18 51 36.440951 +11 18 39.75076
 2018-Sep-13 13:40     18 51 36.448497 +11 18 40.31458
 2018-Sep-13 13:41     18 51 36.456089 +11 18 40.87848
 2018-Sep-13 13:42     18 51 36.463726 +11 18 41.44246
 2018-Sep-13 13:43     18 51 36.471409 +11 18 42.00652
 2018-Sep-13 13:44     18 51 36.479137 +11 18 42.57065
 2018-Sep-13 13:45     18 51 36.486911 +11 18 43.13487
 2018-Sep-13 13:46     18 51 36.494730 +11 18 43.69917
 2018-Sep-13 13:47     18 51 36.502594 +11 18 44.26356
 2018-Sep-13 13:48     18 51 36.510503 +11 18 44.82802
 2018-Sep-13 13:49     18 51 36.518457 +11 18 45.39257
 2018-Sep-13 13:50     18 51 36.526457 +11 18 45.95720
 2018-Sep-13 13:51     18 51 36.534500 +11 18 46.52192
 2018-Sep-13 13:52     18 51 36.542589 +11 18 47.08672
 2018-Sep-13 13:53     18 51 36.550722 +11 18 47.65161
 2018-Sep-13 13:54     18 51 36.558899 +11 18 48.21658
 2018-Sep-13 13:55     18 51 36.567120 +11 18 48.78164
 2018-Sep-13 13:56     18 51 36.575386 +11 18 49.34679
 2018-Sep-13 13:57     18 51 36.583696 +11 18 49.91202
 2018-Sep-13 13:58     18 51 36.592050 +11 18 50.47734
 2018-Sep-13 13:59     18 51 36.600447 +11 18 51.04275
 2018-Sep-13 14:00     18 51 36.608888 +11 18 51.60825
 2018-Sep-13 14:01     18 51 36.617373 +11 18 52.17384
 2018-Sep-13 14:02     18 51 36.625901 +11 18 52.73952
 2018-Sep-13 14:03     18 51 36.634473 +11 18 53.30529
 2018-Sep-13 14:04     18 51 36.643088 +11 18 53.87116
 2018-Sep-13 14:05     18 51 36.651745 +11 18 54.43711
 2018-Sep-13 14:06     18 51 36.660446 +11 18 55.00316
 2018-Sep-13 14:07     18 51 36.669190 +11 18 55.56930
 2018-Sep-13 14:08     18 51 36.677976 +11 18 56.13553
 2018-Sep-13 14:09     18 51 36.686805 +11 18 56.70186
 2018-Sep-13 14:10     18 51 36.695677 +11 18 57.26828
 2018-Sep-13 14:11     18 51 36.704590 +11 18 57.83479
 2018-Sep-13 14:12     18 51 36.713546 +11 18 58.40140
 2018-Sep-13 14:13     18 51 36.722544 +11 18 58.96811
 2018-Sep-13 14:14     18 51 36.731584 +11 18 59.53492
 2018-Sep-13 14:15     18 51 36.740666 +11 19 00.10182
 2018-Sep-13 14:16     18 51 36.749790 +11 19 00.66882
 2018-Sep-13 14:17     18 51 36.758955 +11 19 01.23591
 2018-Sep-13 14:18     18 51 36.768161 +11 19 01.80311
 2018-Sep-13 14:19     18 51 36.777409 +11 19 02.37040
 2018-Sep-13 14:20     18 51 36.786698 +11 19 02.93780
 2018-Sep-13 14:21     18 51 36.796028 +11 19 03.50529
 2018-Sep-13 14:22     18 51 36.805399 +11 19 04.07289
 2018-Sep-13 14:23     18 51 36.814810 +11 19 04.64058
 2018-Sep-13 14:24     18 51 36.824263 +11 19 05.20838
 2018-Sep-13 14:25     18 51 36.833755 +11 19 05.77628
 2018-Sep-13 14:26     18 51 36.843288 +11 19 06.34428
 2018-Sep-13 14:27     18 51 36.852862 +11 19 06.91239
 2018-Sep-13 14:28     18 51 36.862475 +11 19 07.48059
 2018-Sep-13 14:29     18 51 36.872128 +11 19 08.04891
 2018-Sep-13 14:30     18 51 36.881821 +11 19 08.61732
 2018-Sep-13 14:31     18 51 36.891554 +11 19 09.18585
 2018-Sep-13 14:32     18 51 36.901326 +11 19 09.75447
 2018-Sep-13 14:33     18 51 36.911137 +11 19 10.32321
 2018-Sep-13 14:34     18 51 36.920988 +11 19 10.89205
 2018-Sep-13 14:35     18 51 36.930878 +11 19 11.46100
 2018-Sep-13 14:36     18 51 36.940807 +11 19 12.03005
 2018-Sep-13 14:37     18 51 36.950774 +11 19 12.59921
 2018-Sep-13 14:38     18 51 36.960780 +11 19 13.16848
 2018-Sep-13 14:39     18 51 36.970824 +11 19 13.73786
 2018-Sep-13 14:40     18 51 36.980907 +11 19 14.30735
 2018-Sep-13 14:41     18 51 36.991028 +11 19 14.87695
 2018-Sep-13 14:42     18 51 37.001187 +11 19 15.44666
 2018-Sep-13 14:43     18 51 37.011384 +11 19 16.01648
 2018-Sep-13 14:44     18 51 37.021619 +11 19 16.58641
 2018-Sep-13 14:45     18 51 37.031891 +11 19 17.15645
 2018-Sep-13 14:46     18 51 37.042201 +11 19 17.72661
 2018-Sep-13 14:47     18 51 37.052548 +11 19 18.29687
 2018-Sep-13 14:48     18 51 37.062932 +11 19 18.86725
 2018-Sep-13 14:49     18 51 37.073353 +11 19 19.43775
 2018-Sep-13 14:50     18 51 37.083810 +11 19 20.00836
